[
    {
        "Altitude(m)": 554142.882122755,
        "Argument of Periapsis(deg)": 0.019868973332140504,
        "Eccentricity": 0.0,
        "Inclination(deg)": 53.0,
        "Latitude(deg)": 23.373478474667625,
        "Longitude(deg)": 138.72114298532676,
        "Mean Anomaly(deg)": 150.27487860273277,
        "RAAN(deg)": 79.97043010558404,
        "Satellite Name": "Starlink Shell 1 359",
        "Satellite Number": 359,
        "Semi-Major Axis(m)": 6931778.249405717,
        "Time(s)": 570
    },
    {
        "Altitude(m)": 554090.9649821898,
        "Argument of Periapsis(deg)": 0.02021755181165174,
        "Eccentricity": 0.0,
        "Inclination(deg)": 53.0,
        "Latitude(deg)": 22.896609190503995,
        "Longitude(deg)": 139.1249550604098,
        "Mean Anomaly(deg)": 150.9017098062895,
        "RAAN(deg)": 79.96991133550658,
        "Satellite Name": "Starlink Shell 1 359",
        "Satellite Number": 359,
        "Semi-Major Axis(m)": 6931778.249405717,
        "Time(s)": 580
    },
    {
        "Altitude(m)": 554040.8713088805,
        "Argument of Periapsis(deg)": 0.020566130291162974,
        "Eccentricity": 0.0,
        "Inclination(deg)": 53.0,
        "Latitude(deg)": 22.418475064939933,
        "Longitude(deg)": 139.52566424917762,
        "Mean Anomaly(deg)": 151.52854100984624,
        "RAAN(deg)": 79.9693925654291,
        "Satellite Name": "Starlink Shell 1 359",
        "Satellite Number": 359,
        "Semi-Major Axis(m)": 6931778.249405717,
        "Time(s)": 590
    },
    {
        "Altitude(m)": 553992.6460548938,
        "Argument of Periapsis(deg)": 0.020914708770674213,
        "Eccentricity": 0.0,
        "Inclination(deg)": 53.0,
        "Latitude(deg)": 21.939113504386214,
        "Longitude(deg)": 139.92335542505813,
        "Mean Anomaly(deg)": 152.15537221340296,
        "RAAN(deg)": 79.96887379535163,
        "Satellite Name": "Starlink Shell 1 359",
        "Satellite Number": 359,
        "Semi-Major Axis(m)": 6931778.249405717,
        "Time(s)": 600
    },
    {
        "Altitude(m)": 553946.3333988361,
        "Argument of Periapsis(deg)": 0.021263287250185448,
        "Eccentricity": 0.0,
        "Inclination(deg)": 53.0,
        "Latitude(deg)": 21.45856120131894,
        "Longitude(deg)": 140.3181122896398,
        "Mean Anomaly(deg)": 152.78220341695962,
        "RAAN(deg)": 79.96835502527416,
        "Satellite Name": "Starlink Shell 1 359",
        "Satellite Number": 359,
        "Semi-Major Axis(m)": 6931778.249405717,
        "Time(s)": 610
    },
    {
        "Altitude(m)": 553901.9767216267,
        "Argument of Periapsis(deg)": 0.021611865729696686,
        "Eccentricity": 0.0,
        "Inclination(deg)": 53.0,
        "Latitude(deg)": 20.976854157816344,
        "Longitude(deg)": 140.71001789867722,
        "Mean Anomaly(deg)": 153.4090346205163,
        "RAAN(deg)": 79.96783625519667,
        "Satellite Name": "Starlink Shell 1 359",
        "Satellite Number": 359,
        "Semi-Major Axis(m)": 6931778.249405717,
        "Time(s)": 620
    },
    {
        "Altitude(m)": 553859.6185825845,
        "Argument of Periapsis(deg)": 0.02196044420920792,
        "Eccentricity": 0.0,
        "Inclination(deg)": 53.0,
        "Latitude(deg)": 20.494027708586025,
        "Longitude(deg)": 141.09915350793653,
        "Mean Anomaly(deg)": 154.03586582407303,
        "RAAN(deg)": 79.96731748511921,
        "Satellite Name": "Starlink Shell 1 359",
        "Satellite Number": 359,
        "Semi-Major Axis(m)": 6931778.249405717,
        "Time(s)": 630
    },
    {
        "Altitude(m)": 553819.300695947,
        "Argument of Periapsis(deg)": 0.02230902268871916,
        "Eccentricity": 0.0,
        "Inclination(deg)": 53.0,
        "Latitude(deg)": 20.010116543483946,
        "Longitude(deg)": 141.48559994121678,
        "Mean Anomaly(deg)": 154.6626970276298,
        "RAAN(deg)": 79.96679871504173,
        "Satellite Name": "Starlink Shell 1 359",
        "Satellite Number": 359,
        "Semi-Major Axis(m)": 6931778.249405717,
        "Time(s)": 640
    },
    {
        "Altitude(m)": 553781.063907737,
        "Argument of Periapsis(deg)": 0.022657601168230398,
        "Eccentricity": 0.0,
        "Inclination(deg)": 53.0,
        "Latitude(deg)": 19.52515472954056,
        "Longitude(deg)": 141.8694364375477,
        "Mean Anomaly(deg)": 155.28952823118652,
        "RAAN(deg)": 79.96627994496426,
        "Satellite Name": "Starlink Shell 1 359",
        "Satellite Number": 359,
        "Semi-Major Axis(m)": 6931778.249405717,
        "Time(s)": 650
    },
    {
        "Altitude(m)": 553744.9481730458,
        "Argument of Periapsis(deg)": 0.023006179647741636,
        "Eccentricity": 0.0,
        "Inclination(deg)": 53.0,
        "Latitude(deg)": 19.039175732496336,
        "Longitude(deg)": 142.25074117991585,
        "Mean Anomaly(deg)": 155.9163594347432,
        "RAAN(deg)": 79.9657611748868,
        "Satellite Name": "Starlink Shell 1 359",
        "Satellite Number": 359,
        "Semi-Major Axis(m)": 6931778.249405717,
        "Time(s)": 660
    },
    {
        "Altitude(m)": 553710.9925337458,
        "Argument of Periapsis(deg)": 0.023354758127252868,
        "Eccentricity": 0.0,
        "Inclination(deg)": 53.0,
        "Latitude(deg)": 18.552212437859733,
        "Longitude(deg)": 142.62959182447358,
        "Mean Anomaly(deg)": 156.5431906382999,
        "RAAN(deg)": 79.96524240480932,
        "Satellite Name": "Starlink Shell 1 359",
        "Satellite Number": 359,
        "Semi-Major Axis(m)": 6931778.249405717,
        "Time(s)": 670
    },
    {
        "Altitude(m)": 553679.2350966029,
        "Argument of Periapsis(deg)": 0.023703336606764106,
        "Eccentricity": 0.0,
        "Inclination(deg)": 53.0,
        "Latitude(deg)": 18.06429717149797,
        "Longitude(deg)": 143.00606451729396,
        "Mean Anomaly(deg)": 157.17002184185665,
        "RAAN(deg)": 79.96472363473184,
        "Satellite Name": "Starlink Shell 1 359",
        "Satellite Number": 359,
        "Semi-Major Axis(m)": 6931778.249405717,
        "Time(s)": 680
    },
    {
        "Altitude(m)": 553649.7130118455,
        "Argument of Periapsis(deg)": 0.024051915086275345,
        "Eccentricity": 0.0,
        "Inclination(deg)": 53.0,
        "Latitude(deg)": 17.575461719769077,
        "Longitude(deg)": 143.38023442435733,
        "Mean Anomaly(deg)": 157.79685304541337,
        "RAAN(deg)": 79.96420486465438,
        "Satellite Name": "Starlink Shell 1 359",
        "Satellite Number": 359,
        "Semi-Major Axis(m)": 6931778.249405717,
        "Time(s)": 690
    },
    {
        "Altitude(m)": 553622.4624521956,
        "Argument of Periapsis(deg)": 0.024400493565786583,
        "Eccentricity": 0.0,
        "Inclination(deg)": 53.0,
        "Latitude(deg)": 17.085737349206333,
        "Longitude(deg)": 143.7521762618425,
        "Mean Anomaly(deg)": 158.42368424897003,
        "RAAN(deg)": 79.9636860945769,
        "Satellite Name": "Starlink Shell 1 359",
        "Satellite Number": 359,
        "Semi-Major Axis(m)": 6931778.249405717,
        "Time(s)": 700
    },
    {
        "Altitude(m)": 553597.5185923241,
        "Argument of Periapsis(deg)": 0.024749072045297815,
        "Eccentricity": 0.0,
        "Inclination(deg)": 53.0,
        "Latitude(deg)": 16.59515482576901,
        "Longitude(deg)": 144.12196331379815,
        "Mean Anomaly(deg)": 159.05051545252678,
        "RAAN(deg)": 79.96316732449942,
        "Satellite Name": "Starlink Shell 1 359",
        "Satellite Number": 359,
        "Semi-Major Axis(m)": 6931778.249405717,
        "Time(s)": 710
    },
    {
        "Altitude(m)": 553574.9155888297,
        "Argument of Periapsis(deg)": 0.025097650524809053,
        "Eccentricity": 0.0,
        "Inclination(deg)": 53.0,
        "Latitude(deg)": 16.10374443366817,
        "Longitude(deg)": 144.48966796289724,
        "Mean Anomaly(deg)": 159.67734665608344,
        "RAAN(deg)": 79.96264855442195,
        "Satellite Name": "Starlink Shell 1 359",
        "Satellite Number": 359,
        "Semi-Major Axis(m)": 6931778.249405717,
        "Time(s)": 720
    },
    {
        "Altitude(m)": 553554.6865606499,
        "Argument of Periapsis(deg)": 0.02544622900432029,
        "Eccentricity": 0.0,
        "Inclination(deg)": 53.0,
        "Latitude(deg)": 15.611535993778979,
        "Longitude(deg)": 144.85536222135977,
        "Mean Anomaly(deg)": 160.30417785964022,
        "RAAN(deg)": 79.96212978434448,
        "Satellite Name": "Starlink Shell 1 359",
        "Satellite Number": 359,
        "Semi-Major Axis(m)": 6931778.249405717,
        "Time(s)": 730
    },
    {
        "Altitude(m)": 553536.8635700239,
        "Argument of Periapsis(deg)": 0.02579480748383153,
        "Eccentricity": 0.0,
        "Inclination(deg)": 53.0,
        "Latitude(deg)": 15.118558881656076,
        "Longitude(deg)": 145.21911674913292,
        "Mean Anomaly(deg)": 160.93100906319697,
        "RAAN(deg)": 79.961611014267,
        "Satellite Name": "Starlink Shell 1 359",
        "Satellite Number": 359,
        "Semi-Major Axis(m)": 6931778.249405717,
        "Time(s)": 740
    },
    {
        "Altitude(m)": 553521.4776039117,
        "Argument of Periapsis(deg)": 0.026143385963342765,
        "Eccentricity": 0.0,
        "Inclination(deg)": 53.0,
        "Latitude(deg)": 14.62484204515858,
        "Longitude(deg)": 145.58100138504363,
        "Mean Anomaly(deg)": 161.55784026675363,
        "RAAN(deg)": 79.96109224418953,
        "Satellite Name": "Starlink Shell 1 359",
        "Satellite Number": 359,
        "Semi-Major Axis(m)": 6931778.249405717,
        "Time(s)": 750
    }
]